CCSDS_OMM_VERS = 2.0
CREATION_DATE  = 
ORIGINATOR     = 

OBJECT_NAME    = STARLINK-36439
OBJECT_ID      = 2026-020H
CENTER_NAME    = EARTH
REF_FRAME      = TEME
TIME_SYSTEM    = UTC
MEAN_ELEMENT_THEORY = SGP/SGP4

EPOCH          = 2026-02-24T11:41:58.494048
MEAN_MOTION    = 15.76491825
ECCENTRICITY   = .0001647
INCLINATION    = 42.9972
RA_OF_ASC_NODE = 222.3028
ARG_OF_PERICENTER = 256.8189
MEAN_ANOMALY   = 103.2497

EPHEMERIS_TYPE = 0
CLASSIFICATION_TYPE = U
NORAD_CAT_ID   = 67624
ELEMENT_SET_NO = 999
REV_AT_EPOCH   = 400
BSTAR          = .23182E-2
MEAN_MOTION_DOT = .397455E-2
MEAN_MOTION_DDOT = 0

CCSDS_OMM_VERS = 2.0
CREATION_DATE  = 
ORIGINATOR     = 

OBJECT_NAME    = STARLINK-36438
OBJECT_ID      = 2026-020J
CENTER_NAME    = EARTH
REF_FRAME      = TEME
TIME_SYSTEM    = UTC
MEAN_ELEMENT_THEORY = SGP/SGP4

EPOCH          = 2026-02-23T19:07:48.920736
MEAN_MOTION    = 15.76485260
ECCENTRICITY   = .0002141
INCLINATION    = 42.9975
RA_OF_ASC_NODE = 226.5916
ARG_OF_PERICENTER = 300.6794
MEAN_ANOMALY   = 59.3865

EPHEMERIS_TYPE = 0
CLASSIFICATION_TYPE = U
NORAD_CAT_ID   = 67625
ELEMENT_SET_NO = 999
REV_AT_EPOCH   = 389
BSTAR          = .22103059E-2
MEAN_MOTION_DOT = .377942E-2
MEAN_MOTION_DDOT = 0

CCSDS_OMM_VERS = 2.0
CREATION_DATE  = 
ORIGINATOR     = 

OBJECT_NAME    = STARLINK-36436
OBJECT_ID      = 2026-020K
CENTER_NAME    = EARTH
REF_FRAME      = TEME
TIME_SYSTEM    = UTC
MEAN_ELEMENT_THEORY = SGP/SGP4

EPOCH          = 2026-02-24T12:41:41.212608
MEAN_MOTION    = 15.76398934
ECCENTRICITY   = .0003521
INCLINATION    = 42.9987
RA_OF_ASC_NODE = 221.7408
ARG_OF_PERICENTER = 294.5319
MEAN_ANOMALY   = 65.5183

EPHEMERIS_TYPE = 0
CLASSIFICATION_TYPE = U
NORAD_CAT_ID   = 67626
ELEMENT_SET_NO = 999
REV_AT_EPOCH   = 401
BSTAR          = .19453E-2
MEAN_MOTION_DOT = .329424E-2
MEAN_MOTION_DDOT = 0

CCSDS_OMM_VERS = 2.0
CREATION_DATE  = 
ORIGINATOR     = 

OBJECT_NAME    = STARLINK-36502
OBJECT_ID      = 2026-020L
CENTER_NAME    = EARTH
REF_FRAME      = TEME
TIME_SYSTEM    = UTC
MEAN_ELEMENT_THEORY = SGP/SGP4

EPOCH          = 2026-02-24T12:00:01.999296
MEAN_MOTION    = 15.76387272
ECCENTRICITY   = .0001685
INCLINATION    = 42.9991
RA_OF_ASC_NODE = 221.7624
ARG_OF_PERICENTER = 252.3843
MEAN_ANOMALY   = 5.5264

EPHEMERIS_TYPE = 0
CLASSIFICATION_TYPE = U
NORAD_CAT_ID   = 67627
ELEMENT_SET_NO = 999
REV_AT_EPOCH   = 527
BSTAR          = -.11993E-4
MEAN_MOTION_DOT = -.2442E-4
MEAN_MOTION_DDOT = 0

CCSDS_OMM_VERS = 2.0
CREATION_DATE  = 
ORIGINATOR     = 

OBJECT_NAME    = STARLINK-36532
OBJECT_ID      = 2026-020M
CENTER_NAME    = EARTH
REF_FRAME      = TEME
TIME_SYSTEM    = UTC
MEAN_ELEMENT_THEORY = SGP/SGP4

EPOCH          = 2026-02-24T12:00:01.999296
MEAN_MOTION    = 15.76381898
ECCENTRICITY   = .0001474
INCLINATION    = 42.9992
RA_OF_ASC_NODE = 221.7305
ARG_OF_PERICENTER = 267.6577
MEAN_ANOMALY   = 2.7015

EPHEMERIS_TYPE = 0
CLASSIFICATION_TYPE = U
NORAD_CAT_ID   = 67628
ELEMENT_SET_NO = 999
REV_AT_EPOCH   = 527
BSTAR          = .23294E-4
MEAN_MOTION_DOT = .331E-4
MEAN_MOTION_DDOT = 0

CCSDS_OMM_VERS = 2.0
CREATION_DATE  = 
ORIGINATOR     = 

OBJECT_NAME    = STARLINK-36367
OBJECT_ID      = 2026-020N
CENTER_NAME    = EARTH
REF_FRAME      = TEME
TIME_SYSTEM    = UTC
MEAN_ELEMENT_THEORY = SGP/SGP4

EPOCH          = 2026-02-24T11:26:12.774336
MEAN_MOTION    = 15.76475056
ECCENTRICITY   = .000193
INCLINATION    = 42.9969
RA_OF_ASC_NODE = 222.2141
ARG_OF_PERICENTER = 273.6795
MEAN_ANOMALY   = 86.3854

EPHEMERIS_TYPE = 0
CLASSIFICATION_TYPE = U
NORAD_CAT_ID   = 67629
ELEMENT_SET_NO = 999
REV_AT_EPOCH   = 400
BSTAR          = .23961E-2
MEAN_MOTION_DOT = .411198E-2
MEAN_MOTION_DDOT = 0

CCSDS_OMM_VERS = 2.0
CREATION_DATE  = 
ORIGINATOR     = 

OBJECT_NAME    = STARLINK-36416
OBJECT_ID      = 2026-020P
CENTER_NAME    = EARTH
REF_FRAME      = TEME
TIME_SYSTEM    = UTC
MEAN_ELEMENT_THEORY = SGP/SGP4

EPOCH          = 2026-02-24T11:48:17.080704
MEAN_MOTION    = 15.76644388
ECCENTRICITY   = .0001859
INCLINATION    = 42.9971
RA_OF_ASC_NODE = 222.3380
ARG_OF_PERICENTER = 232.6904
MEAN_ANOMALY   = 127.3796

EPHEMERIS_TYPE = 0
CLASSIFICATION_TYPE = U
NORAD_CAT_ID   = 67630
ELEMENT_SET_NO = 999
REV_AT_EPOCH   = 400
BSTAR          = .26229E-2
MEAN_MOTION_DOT = .45599E-2
MEAN_MOTION_DDOT = 0

CCSDS_OMM_VERS = 2.0
CREATION_DATE  = 
ORIGINATOR     = 

OBJECT_NAME    = STARLINK-36527
OBJECT_ID      = 2026-020Q
CENTER_NAME    = EARTH
REF_FRAME      = TEME
TIME_SYSTEM    = UTC
MEAN_ELEMENT_THEORY = SGP/SGP4

EPOCH          = 2026-02-22T20:44:02.529888
MEAN_MOTION    = 15.82033993
ECCENTRICITY   = .0003436
INCLINATION    = 42.9984
RA_OF_ASC_NODE = 231.6086
ARG_OF_PERICENTER = 320.3353
MEAN_ANOMALY   = 39.7267

EPHEMERIS_TYPE = 0
CLASSIFICATION_TYPE = U
NORAD_CAT_ID   = 67631
ELEMENT_SET_NO = 999
REV_AT_EPOCH   = 375
BSTAR          = .18649E-2
MEAN_MOTION_DOT = .41178E-2
MEAN_MOTION_DDOT = 0

CCSDS_OMM_VERS = 2.0
CREATION_DATE  = 
ORIGINATOR     = 

OBJECT_NAME    = STARLINK-36633
OBJECT_ID      = 2026-020R
CENTER_NAME    = EARTH
REF_FRAME      = TEME
TIME_SYSTEM    = UTC
MEAN_ELEMENT_THEORY = SGP/SGP4

EPOCH          = 2026-02-24T11:04:08.630400
MEAN_MOTION    = 15.76584352
ECCENTRICITY   = .0001943
INCLINATION    = 42.9982
RA_OF_ASC_NODE = 222.0898
ARG_OF_PERICENTER = 240.7109
MEAN_ANOMALY   = 119.3566

EPHEMERIS_TYPE = 0
CLASSIFICATION_TYPE = U
NORAD_CAT_ID   = 67632
ELEMENT_SET_NO = 999
REV_AT_EPOCH   = 400
BSTAR          = .23582E-2
MEAN_MOTION_DOT = .406421E-2
MEAN_MOTION_DDOT = 0

CCSDS_OMM_VERS = 2.0
CREATION_DATE  = 
ORIGINATOR     = 

OBJECT_NAME    = STARLINK-36637
OBJECT_ID      = 2026-020S
CENTER_NAME    = EARTH
REF_FRAME      = TEME
TIME_SYSTEM    = UTC
MEAN_ELEMENT_THEORY = SGP/SGP4

EPOCH          = 2026-02-24T11:45:07.809408
MEAN_MOTION    = 15.76455727
ECCENTRICITY   = .0001296
INCLINATION    = 42.9966
RA_OF_ASC_NODE = 222.3209
ARG_OF_PERICENTER = 253.9482
MEAN_ANOMALY   = 106.1245

EPHEMERIS_TYPE = 0
CLASSIFICATION_TYPE = U
NORAD_CAT_ID   = 67633
ELEMENT_SET_NO = 999
REV_AT_EPOCH   = 400
BSTAR          = .16362E-2
MEAN_MOTION_DOT = .275898E-2
MEAN_MOTION_DDOT = 0

CCSDS_OMM_VERS = 2.0
CREATION_DATE  = 
ORIGINATOR     = 

OBJECT_NAME    = STARLINK-36617
OBJECT_ID      = 2026-020T
CENTER_NAME    = EARTH
REF_FRAME      = TEME
TIME_SYSTEM    = UTC
MEAN_ELEMENT_THEORY = SGP/SGP4

EPOCH          = 2026-02-24T12:00:01.999296
MEAN_MOTION    = 15.76385224
ECCENTRICITY   = .0001949
INCLINATION    = 42.9991
RA_OF_ASC_NODE = 221.6687
ARG_OF_PERICENTER = 250.9075
MEAN_ANOMALY   = 44.3315

EPHEMERIS_TYPE = 0
CLASSIFICATION_TYPE = U
NORAD_CAT_ID   = 67634
ELEMENT_SET_NO = 999
REV_AT_EPOCH   = 527
BSTAR          = .131E-4
MEAN_MOTION_DOT = .1647E-4
MEAN_MOTION_DDOT = 0

CCSDS_OMM_VERS = 2.0
CREATION_DATE  = 
ORIGINATOR     = 

OBJECT_NAME    = STARLINK-36627
OBJECT_ID      = 2026-020U
CENTER_NAME    = EARTH
REF_FRAME      = TEME
TIME_SYSTEM    = UTC
MEAN_ELEMENT_THEORY = SGP/SGP4

EPOCH          = 2026-02-24T11:35:40.272000
MEAN_MOTION    = 15.76580326
ECCENTRICITY   = .0002632
INCLINATION    = 42.9969
RA_OF_ASC_NODE = 222.2658
ARG_OF_PERICENTER = 251.1440
MEAN_ANOMALY   = 108.9144

EPHEMERIS_TYPE = 0
CLASSIFICATION_TYPE = U
NORAD_CAT_ID   = 67635
ELEMENT_SET_NO = 999
REV_AT_EPOCH   = 400
BSTAR          = .27148E-2
MEAN_MOTION_DOT = .471515E-2
MEAN_MOTION_DDOT = 0

