STARLINK-36439          
1 67624U 26020H   26055.48748257  .00397455  00000+0  23182-2 0  9998
2 67624  42.9972 222.3028 0001647 256.8189 103.2497 15.76491825  4004
STARLINK-36438          
1 67625U 26020J   26054.79709399  .00377942  00000+0  22103-2 0  9997
2 67625  42.9975 226.5916 0002141 300.6794  59.3865 15.76485260  3892
STARLINK-36436          
1 67626U 26020K   26055.52894922  .00329424  00000+0  19453-2 0  9993
2 67626  42.9987 221.7408 0003521 294.5319  65.5183 15.76398934  4014
STARLINK-36502          
1 67627U 26020L   26055.50002314 -.00002442  00000+0 -11993-4 0  9991
2 67627  42.9991 221.7624 0001685 252.3843   5.5264 15.76387272  5279
STARLINK-36532          
1 67628U 26020M   26055.50002314  .00003310  00000+0  23294-4 0  9992
2 67628  42.9992 221.7305 0001474 267.6577   2.7015 15.76381898  5277
STARLINK-36367          
1 67629U 26020N   26055.47653674  .00411198  00000+0  23961-2 0  9996
2 67629  42.9969 222.2141 0001930 273.6795  86.3854 15.76475056  4001
STARLINK-36416          
1 67630U 26020P   26055.49186436  .00455990  00000+0  26229-2 0  9995
2 67630  42.9971 222.3380 0001859 232.6904 127.3796 15.76644388  4006
STARLINK-36527          
1 67631U 26020Q   26053.86391817  .00411780  00000+0  18649-2 0  9992
2 67631  42.9984 231.6086 0003436 320.3353  39.7267 15.82033993  3754
STARLINK-36633          
1 67632U 26020R   26055.46121100  .00406421  00000+0  23582-2 0  9995
2 67632  42.9982 222.0898 0001943 240.7109 119.3566 15.76584352  4002
STARLINK-36637          
1 67633U 26020S   26055.48967372  .00275898  00000+0  16362-2 0  9997
2 67633  42.9966 222.3209 0001296 253.9482 106.1245 15.76455727  4006
STARLINK-36617          
1 67634U 26020T   26055.50002314  .00001647  00000+0  13100-4 0  9995
2 67634  42.9991 221.6687 0001949 250.9075  44.3315 15.76385224  5272
STARLINK-36627          
1 67635U 26020U   26055.48310500  .00471515  00000+0  27148-2 0  9992
2 67635  42.9969 222.2658 0002632 251.1440 108.9144 15.76580326  4009
